NORAD_CAT_ID,OBJECT_NAME,OBJECT_TYPE,EPOCH,MEAN_MOTION,ECCENTRICITY,INCLINATION,RA_OF_ASC_NODE,ARG_OF_PERICENTER,MEAN_ANOMALY,BSTAR,MEAN_MOTION_DOT,MEAN_MOTION_DDOT,TLE_LINE0,TLE_LINE1,TLE_LINE2,SEMIMAJOR_AXIS,PERIOD,APOGEE,PERIGEE,DECAYED
49734.0,STARLINK-3238,PAYLOAD,2024-06-18 01:20:29,15.08839994,0.0001522,53.2181,95.6838,85.3412,274.7754,5.068e-05,5.19e-06,0.0,0 STARLINK-3238,1 49734U 21115L   24170.05589337  .00000519  00000-0  50680-4 0  9999,2 49734  53.2181  95.6838 0001522  85.3412 274.7754 15.08839994141593,6917.88,95.438,540.798,538.693,0.0
49734.0,STARLINK-3238,PAYLOAD,2024-06-18 12:28:10,15.08850502,0.0001405,53.2178,93.5992,90.7931,269.3222,9.3276e-05,1.197e-05,0.0,0 STARLINK-3238,1 49734U 21115L   24170.51956360  .00001197  00000-0  93276-4 0  9995,2 49734  53.2178  93.5992 0001405  90.7931 269.3222 15.08850502141669,6917.848,95.437,540.685,538.741,0.0
49734.0,STARLINK-3238,PAYLOAD,2024-06-19 01:11:16,15.08835586,0.0001494,53.2187,91.2194,92.2812,267.8351,0.00013338,1.835e-05,0.0,0 STARLINK-3238,1 49734U 21115L   24171.04949227  .00001835  00000-0  13338-3 0  9997,2 49734  53.2187  91.2194 0001494  92.2812 267.8351 15.08835586141741,6917.894,95.438,540.792,538.725,0.0
49734.0,STARLINK-3238,PAYLOAD,2024-06-19 12:18:57,15.0884814,0.0001615,53.2198,89.1389,99.9145,260.2029,0.00013477,1.858e-05,0.0,0 STARLINK-3238,1 49734U 21115L   24171.51316305  .00001858  00000-0  13477-3 0  9993,2 49734  53.2198  89.1389 0001615  99.9145 260.2029 15.08848140141810,6917.856,95.437,540.838,538.603,0.0
49734.0,STARLINK-3238,PAYLOAD,2024-06-19 18:40:30,15.08840167,0.0001918,53.2166,87.9484,102.4348,257.6859,7.9087e-05,9.71e-06,0.0,0 STARLINK-3238,1 49734U 21115L   24171.77812969  .00000971  00000-0  79087-4 0  9993,2 49734  53.2166  87.9484 0001918 102.4348 257.6859 15.08840167141854,6917.88,95.438,541.072,538.418,0.0
49734.0,STARLINK-3238,PAYLOAD,2024-06-19 21:51:16,15.08839074,0.0001915,53.2179,87.3519,113.8757,246.2436,5.3496e-05,5.63e-06,0.0,0 STARLINK-3238,1 49734U 21115L   24171.91061011  .00000563  00000-0  53496-4 0  9996,2 49734  53.2179  87.3519 0001915 113.8757 246.2436 15.08839074140767,6917.883,95.438,541.073,538.423,0.0
49734.0,STARLINK-3238,PAYLOAD,2024-06-20 01:02:03,15.0883847,0.000161,53.2189,86.7605,104.9872,255.1299,-3.164e-05,-7.92e-06,0.0,0 STARLINK-3238,1 49734U 21115L   24172.04309368 -.00000792  00000-0 -31640-4 0  9994,2 49734  53.2189  86.7605 0001610 104.9872 255.1299 15.08838470140785,6917.885,95.438,540.864,538.636,0.0
49734.0,STARLINK-3238,PAYLOAD,2024-06-20 21:42:04,15.08835204,0.0001553,53.2175,82.8939,109.4196,250.6964,2.3413e-05,8.5e-07,0.0,0 STARLINK-3238,1 49734U 21115L   24172.90421454  .00000085  00000-0  23413-4 0  9992,2 49734  53.2175  82.8939 0001553 109.4196 250.6964 15.08835204140918,6917.895,95.438,540.834,538.686,0.0
49734.0,STARLINK-3238,PAYLOAD,2024-06-20 23:17:27,15.08835788,0.0001543,53.2175,82.5966,109.2639,250.852,2.8603e-05,1.67e-06,0.0,0 STARLINK-3238,1 49734U 21115L   24172.97045422  .00000167  00000-0  28603-4 0  9993,2 49734  53.2175  82.5966 0001543 109.2639 250.8520 15.08835788142036,6917.893,95.438,540.826,538.691,0.0
49734.0,STARLINK-3238,PAYLOAD,2024-06-21 21:32:51,15.08830979,0.0001652,53.2174,78.4328,120.8116,239.3039,8.5295e-05,1.069e-05,0.0,0 STARLINK-3238,1 49734U 21115L   24173.89781886  .00001069  00000-0  85295-4 0  9998,2 49734  53.2174  78.4328 0001652 120.8116 239.3039 15.08830979141067,6917.908,95.438,540.916,538.63,0.0
49734.0,STARLINK-3238,PAYLOAD,2024-06-22 03:54:24,15.08830729,0.0001429,53.2179,77.2435,109.2963,250.8184,3.5542e-05,2.78e-06,0.0,0 STARLINK-3238,1 49734U 21115L   24174.16278228  .00000278  00000-0  35542-4 0  9991,2 49734  53.2179  77.2435 0001429 109.2963 250.8184 15.08830729142211,6917.909,95.438,540.762,538.785,0.0
49734.0,STARLINK-3238,PAYLOAD,2024-06-22 21:23:38,15.08837591,0.0001284,53.2182,73.9745,103.1328,256.9807,0.00010581,1.396e-05,0.0,0 STARLINK-3238,1 49734U 21115L   24174.89141878  .00001396  00000-0  10581-3 0  9998,2 49734  53.2182  73.9745 0001284 103.1328 256.9807 15.08837591142324,6917.888,95.438,540.641,538.864,0.0
49734.0,STARLINK-3238,PAYLOAD,2024-06-23 02:09:47,15.08840897,0.0001272,53.2184,73.0821,98.0627,262.0509,0.00012803,1.75e-05,0.0,0 STARLINK-3238,1 49734U 21115L   24175.09013692  .00001750  00000-0  12803-3 0  9996,2 49734  53.2184  73.0821 0001272  98.0627 262.0509 15.08840897141243,6917.878,95.437,540.623,538.863,0.0
49734.0,STARLINK-3238,PAYLOAD,2024-06-23 22:49:48,15.08840791,0.0001154,53.2182,69.2164,93.7303,266.3821,0.00014404,2.005e-05,0.0,0 STARLINK-3238,1 49734U 21115L   24175.95125730  .00002005  00000-0  14404-3 0  9991,2 49734  53.2182  69.2164 0001154  93.7303 266.3821 15.08840791141371,6917.878,95.438,540.541,538.945,0.0
49734.0,STARLINK-3238,PAYLOAD,2024-06-24 02:00:34,15.08843583,0.0001153,53.2182,68.6216,93.0263,267.0861,0.00016646,2.363e-05,0.0,0 STARLINK-3238,1 49734U 21115L   24176.08373546  .00002363  00000-0  16646-3 0  9993,2 49734  53.2182  68.6216 0001153  93.0263 267.0861 15.08843583142509,6917.869,95.437,540.532,538.937,0.0
49734.0,STARLINK-3238,PAYLOAD,2024-06-24 21:05:13,15.08837104,0.00013,53.219,65.054,92.6609,267.4532,1.4407e-05,-5.9e-07,0.0,0 STARLINK-3238,1 49734U 21115L   24176.87862397 -.00000059  00000-0  14407-4 0  9992,2 49734  53.2190  65.0540 0001300  92.6609 267.4532 15.08837104142626,6917.889,95.438,540.654,538.855,0.0
49734.0,STARLINK-3238,PAYLOAD,2024-06-24 22:40:36,15.08838127,0.0001319,53.2188,64.7565,91.8412,268.2731,1.9046e-05,1.5e-07,0.0,0 STARLINK-3238,1 49734U 21115L   24176.94486306  .00000015  00000-0  19046-4 0  9997,2 49734  53.2188  64.7565 0001319  91.8412 268.2731 15.08838127141523,6917.886,95.438,540.664,538.839,0.0
49734.0,STARLINK-3238,PAYLOAD,2024-06-25 00:15:59,15.0883846,0.0001305,53.2187,64.4592,90.8166,269.2976,1.7505e-05,-9e-08,0.0,0 STARLINK-3238,1 49734U 21115L   24177.01110274 -.00000009  00000-0  17505-4 0  9996,2 49734  53.2187  64.4592 0001305  90.8166 269.2976 15.08838460141532,6917.885,95.438,540.653,538.847,0.0
49734.0,STARLINK-3238,PAYLOAD,2024-06-25 20:55:59,15.08846193,0.0001279,53.2186,60.5934,94.4747,265.6391,7.9771e-05,9.82e-06,0.0,0 STARLINK-3238,1 49734U 21115L   24177.87221461  .00000982  00000-0  79771-4 0  9993,2 49734  53.2186  60.5934 0001279  94.4747 265.6391 15.08846193142773,6917.861,95.437,540.611,538.842,0.0
49734.0,STARLINK-3238,PAYLOAD,2024-06-25 22:31:22,15.08847727,0.0001351,53.219,60.2967,87.978,272.1367,9.6075e-05,1.242e-05,0.0,0 STARLINK-3238,1 49734U 21115L   24177.93845353  .00001242  00000-0  96075-4 0  9998,2 49734  53.2190  60.2967 0001351  87.9780 272.1367 15.08847727141674,6917.857,95.437,540.656,538.787,0.0
49734.0,STARLINK-3238,PAYLOAD,2024-06-26 22:22:09,15.08839829,0.0001587,53.2192,55.8347,71.8849,288.2316,6.3411e-05,7.21e-06,0.0,0 STARLINK-3238,1 49734U 21115L   24178.93206010  .00000721  00000-0  63411-4 0  9999,2 49734  53.2192  55.8347 0001587  71.8849 288.2316 15.08839829141820,6917.881,95.438,540.844,538.648,0.0
49734.0,STARLINK-3238,PAYLOAD,2024-06-27 22:12:57,15.088396,0.0001419,53.2192,51.3759,93.8696,266.2459,7.3357e-06,-1.71e-06,0.0,0 STARLINK-3238,1 49734U 21115L   24179.92566154 -.00000171  00000-0  73357-5 0  9998,2 49734  53.2192  51.3759 0001419  93.8696 266.2459 15.08839600141973,6917.882,95.438,540.728,538.765,0.0
49734.0,STARLINK-3238,PAYLOAD,2024-06-27 23:48:20,15.08840431,0.0001393,53.2191,51.0783,93.2647,266.8504,8.8643e-06,-1.47e-06,0.0,0 STARLINK-3238,1 49734U 21115L   24179.99190080 -.00000147  00000-0  88643-5 0  9993,2 49734  53.2191  51.0783 0001393  93.2647 266.8504 15.08840431143093,6917.879,95.438,540.708,538.78,0.0
49734.0,STARLINK-3238,PAYLOAD,2024-06-28 20:28:20,15.08843559,0.0001237,53.2181,47.2138,92.0313,268.0821,0.00016213,2.294e-05,0.0,0 STARLINK-3238,1 49734U 21115L   24180.85301437  .00002294  00000-0  16213-3 0  9996,2 49734  53.2181  47.2138 0001237  92.0313 268.0821 15.08843559142119,6917.87,95.437,540.59,538.879,0.0
49734.0,STARLINK-3238,PAYLOAD,2024-06-29 20:19:09,15.08819229,0.000123,53.2181,42.7534,110.1665,249.9459,-0.00010559,-1.967e-05,0.0,0 STARLINK-3238,1 49734U 21115L   24181.84663726 -.00001967  00000-0 -10559-3 0  9993,2 49734  53.2181  42.7534 0001230 110.1665 249.9459 15.08819229143375,6917.944,95.439,540.66,538.958,0.0
49734.0,STARLINK-3238,PAYLOAD,2024-06-29 21:54:32,15.08819336,0.0001056,53.2177,42.4554,101.6009,258.5102,-0.00011013,-2.039e-05,0.0,0 STARLINK-3238,1 49734U 21115L   24181.91287812 -.00002039  00000-0 -11013-3 0  9996,2 49734  53.2177  42.4554 0001056 101.6009 258.5102 15.08819336142270,6917.944,95.439,540.539,539.078,0.0
49734.0,STARLINK-3238,PAYLOAD,2024-06-30 07:26:50,15.08831223,0.0001219,53.2187,40.6703,103.8713,256.2415,-2.5405e-05,-6.92e-06,0.0,0 STARLINK-3238,1 49734U 21115L   24182.31031110 -.00000692  00000-0 -25405-4 0  9993,2 49734  53.2187  40.6703 0001219 103.8713 256.2415 15.08831223143445,6917.907,95.438,540.616,538.929,0.0
49734.0,STARLINK-3238,PAYLOAD,2024-06-30 21:45:18,15.0883764,0.0001157,53.2172,37.9929,87.1743,272.9381,7.3697e-05,8.85e-06,0.0,0 STARLINK-3238,1 49734U 21115L   24182.90646795  .00000885  00000-0  73697-4 0  9997,2 49734  53.2172  37.9929 0001157  87.1743 272.9381 15.08837640142429,6917.888,95.438,540.553,538.952,0.0
49734.0,STARLINK-3238,PAYLOAD,2024-06-30 23:20:41,15.08839638,0.0001391,53.2185,37.6986,111.9784,248.1356,-1.9896e-05,-6.05e-06,0.0,0 STARLINK-3238,1 49734U 21115L   24182.97270568 -.00000605  00000-0 -19896-4 0  9998,2 49734  53.2185  37.6986 0001391 111.9784 248.1356 15.08839638143544,6917.881,95.438,540.709,538.784,0.0
49734.0,STARLINK-3238,PAYLOAD,2024-07-01 13:39:10,15.08839573,0.0002109,53.2187,35.0213,88.3135,271.8099,0.00046348,7.096e-05,0.0,0 STARLINK-3238,1 49734U 21115L   24183.56887059  .00007096  00000-0  46348-3 0  9993,2 49734  53.2187  35.0213 0002109  88.3135 271.8099 15.08839573142528,6917.882,95.438,541.206,538.288,0.0
